{"type": "FeatureCollection", "features": [ {"type": "Feature", "properties": {"norad_id": 38552, "name": "METEOSAT-10 (MSG-3)", "group": "weather", "lat": -2.4909353407608137, "lon": 25.108534331809604, "alt_km": 35786.96755153506, "timestamp": "2025-12-03T20:47:57.858948+00:00", "meta": {"OBJECT_NAME": "METEOSAT-10 (MSG-3)", "OBJECT_ID": "2012-035B", "EPOCH": "2025-12-03T01:46:14.361312", "MEAN_MOTION": 1.00272334, "ECCENTRICITY": 7.5e-05, "INCLINATION": 4.2044, "RA_OF_ASC_NODE": 61.7366, "ARG_OF_PERICENTER": 219.9554, "MEAN_ANOMALY": 177.1386, "EPHEMERIS_TYPE": 0, "CLASSIFICATION_TYPE": "U", "NORAD_CAT_ID": 38552, "ELEMENT_SET_NO": 999, "REV_AT_EPOCH": 4889, "BSTAR": 0, "MEAN_MOTION_DOT": 1.1e-07, "MEAN_MOTION_DDOT": 0}, "tle": {"line1": "1 38552U 12035B   25337.07377733  .00000011  00000+0  00000+0 0  9991", "line2": "2 38552   4.2044  61.7366 0000750 219.9554 177.1386  1.00272334 48899"}}, "geometry": {"type": "Point", "coordinates": [25.108534331809604, -2.4909353407608137]}}, {"type": "Feature", "properties": {"norad_id": 38771, "name": "METOP-B", "group": "weather", "lat": 67.52567960767485, "lon": 6.3014122988325125, "alt_km": 814.156631913037, "timestamp": "2025-12-03T20:47:57.858959+00:00", "meta": {"OBJECT_NAME": "METOP-B", "OBJECT_ID": "2012-049A", "EPOCH": "2025-12-03T10:20:18.292128", "MEAN_MOTION": 14.21402737, "ECCENTRICITY": 0.0002494, "INCLINATION": 98.6813, "RA_OF_ASC_NODE": 27.5468, "ARG_OF_PERICENTER": 165.2397, "MEAN_ANOMALY": 194.8854, "EPHEMERIS_TYPE": 0, "CLASSIFICATION_TYPE": "U", "NORAD_CAT_ID": 38771, "ELEMENT_SET_NO": 999, "REV_AT_EPOCH": 68545, "BSTAR": 0.00012743, "MEAN_MOTION_DOT": 2.35e-06, "MEAN_MOTION_DDOT": 0}, "tle": {"line1": "1 38771U 12049A   25337.43076727  .00000235  00000+0  12743-3 0  9997", "line2": "2 38771  98.6813  27.5468 0002494 165.2397 194.8854 14.21402737685455"}}, "geometry": {"type": "Point", "coordinates": [6.3014122988325125, 67.52567960767485]}}, {"type": "Feature", "properties": {"norad_id": 39216, "name": "INSAT-3D", "group": "weather", "lat": 1.3228329651474033, "lon": 154.41381169503535, "alt_km": 35784.82985853461, "timestamp": "2025-12-03T20:47:57.858971+00:00", "meta": {"OBJECT_NAME": "INSAT-3D", "OBJECT_ID": "2013-038B", "EPOCH": "2025-12-03T10:56:51.856800", "MEAN_MOTION": 1.00273796, "ECCENTRICITY": 0.0001753, "INCLINATION": 1.4189, "RA_OF_ASC_NODE": 85.096, "ARG_OF_PERICENTER": 154.7686, "MEAN_ANOMALY": 126.4141, "EPHEMERIS_TYPE": 0, "CLASSIFICATION_TYPE": "U", "NORAD_CAT_ID": 39216, "ELEMENT_SET_NO": 999, "REV_AT_EPOCH": 4511, "BSTAR": 0, "MEAN_MOTION_DOT": -3.21e-06, "MEAN_MOTION_DDOT": 0}, "tle": {"line1": "1 39216U 13038B   25337.45615575 -.00000321  00000+0  00000+0 0  9999", "line2": "2 39216   1.4189  85.0960 0001753 154.7686 126.4141  1.00273796 45112"}}, "geometry": {"type": "Point", "coordinates": [154.41381169503535, 1.3228329651474033]}}, {"type": "Feature", "properties": {"norad_id": 39260, "name": "FENGYUN 3C", "group": "weather", "lat": 40.90048805177441, "lon": 143.40082777803522, "alt_km": 835.665925833192, "timestamp": "2025-12-03T20:47:57.858982+00:00", "meta": {"OBJECT_NAME": "FENGYUN 3C", "OBJECT_ID": "2013-052A", "EPOCH": "2025-12-03T13:21:40.702176", "MEAN_MOTION": 14.15691663, "ECCENTRICITY": 0.0013833, "INCLINATION": 98.4754, "RA_OF_ASC_NODE": 315.6849, "ARG_OF_PERICENTER": 223.656, "MEAN_ANOMALY": 136.3522, "EPHEMERIS_TYPE": 0, "CLASSIFICATION_TYPE": "U", "NORAD_CAT_ID": 39260, "ELEMENT_SET_NO": 999, "REV_AT_EPOCH": 63088, "BSTAR": 0.00011685, "MEAN_MOTION_DOT": 1.88e-06, "MEAN_MOTION_DDOT": 0}, "tle": {"line1": "1 39260U 13052A   25337.55672109  .00000188  00000+0  11685-3 0  9996", "line2": "2 39260  98.4754 315.6849 0013833 223.6560 136.3522 14.15691663630886"}}, "geometry": {"type": "Point", "coordinates": [143.40082777803522, 40.90048805177441]}}, {"type": "Feature", "properties": {"norad_id": 40069, "name": "METEOR-M 2", "group": "weather", "lat": -60.42727036386812, "lon": -28.947981299421425, "alt_km": 826.0608615055244, "timestamp": "2025-12-03T20:47:57.858993+00:00", "meta": {"OBJECT_NAME": "METEOR-M 2", "OBJECT_ID": "2014-037A", "EPOCH": "2025-12-03T12:38:28.709952", "MEAN_MOTION": 14.21380697, "ECCENTRICITY": 0.0004707, "INCLINATION": 98.4893, "RA_OF_ASC_NODE": 315.4649, "ARG_OF_PERICENTER": 240.5103, "MEAN_ANOMALY": 119.5606, "EPHEMERIS_TYPE": 0, "CLASSIFICATION_TYPE": "U", "NORAD_CAT_ID": 40069, "ELEMENT_SET_NO": 999, "REV_AT_EPOCH": 59152, "BSTAR": 0.00012616, "MEAN_MOTION_DOT": 2.34e-06, "MEAN_MOTION_DDOT": 0}, "tle": {"line1": "1 40069U 14037A   25337.52672118  .00000234  00000+0  12616-3 0  9993", "line2": "2 40069  98.4893 315.4649 0004707 240.5103 119.5606 14.21380697591528"}}, "geometry": {"type": "Point", "coordinates": [-28.947981299421425, -60.42727036386812]}}, {"type": "Feature", "properties": {"norad_id": 40267, "name": "HIMAWARI-8", "group": "weather", "lat": 0.01061076178759447, "lon": 165.58322881211626, "alt_km": 35788.86237485721, "timestamp": "2025-12-03T20:47:57.859005+00:00", "meta": {"OBJECT_NAME": "HIMAWARI-8", "OBJECT_ID": "2014-060A", "EPOCH": "2025-12-03T10:59:59.057952", "MEAN_MOTION": 1.00270674, "ECCENTRICITY": 0.0001242, "INCLINATION": 0.0039, "RA_OF_ASC_NODE": 102.1153, "ARG_OF_PERICENTER": 181.2671, "MEAN_ANOMALY": 94.8417, "EPHEMERIS_TYPE": 0, "CLASSIFICATION_TYPE": "U", "NORAD_CAT_ID": 40267, "ELEMENT_SET_NO": 999, "REV_AT_EPOCH": 4079, "BSTAR": 0, "MEAN_MOTION_DOT": -2.57e-06, "MEAN_MOTION_DDOT": 0}, "tle": {"line1": "1 40267U 14060A   25337.45832243 -.00000257  00000+0  00000+0 0  9994", "line2": "2 40267   0.0039 102.1153 0001242 181.2671  94.8417  1.00270674 40791"}}, "geometry": {"type": "Point", "coordinates": [165.58322881211626, 0.01061076178759447]}}, {"type": "Feature", "properties": {"norad_id": 40367, "name": "FENGYUN 2G", "group": "weather", "lat": 3.915748645555472, "lon": 124.49922008006696, "alt_km": 35797.314058193726, "timestamp": "2025-12-03T20:47:57.859017+00:00", "meta": {"OBJECT_NAME": "FENGYUN 2G", "OBJECT_ID": "2014-090A", "EPOCH": "2025-12-02T19:23:41.667360", "MEAN_MOTION": 1.00267744, "ECCENTRICITY": 0.00030671, "INCLINATION": 5.141, "RA_OF_ASC_NODE": 75.2124, "ARG_OF_PERICENTER": 193.3464, "MEAN_ANOMALY": 193.9973, "EPHEMERIS_TYPE": 0, "CLASSIFICATION_TYPE": "U", "NORAD_CAT_ID": 40367, "ELEMENT_SET_NO": 999, "REV_AT_EPOCH": 4003, "BSTAR": 0, "MEAN_MOTION_DOT": -2.84e-06, "MEAN_MOTION_DDOT": 0}, "tle": {"line1": "1 40367U 14090A   25336.80812115 -.00000284  00000+0  00000+0 0  9992", "line2": "2 40367   5.1410  75.2124 0003067 193.3464 193.9973  1.00267744 40039"}}, "geometry": {"type": "Point", "coordinates": [124.49922008006696, 3.915748645555472]}}, {"type": "Feature", "properties": {"norad_id": 40732, "name": "METEOSAT-11 (MSG-4)", "group": "weather", "lat": -1.6309747485374217, "lon": 34.435369269486074, "alt_km": 35785.52785083977, "timestamp": "2025-12-03T20:47:57.859030+00:00", "meta": {"OBJECT_NAME": "METEOSAT-11 (MSG-4)", "OBJECT_ID": "2015-034A", "EPOCH": "2025-12-03T06:57:10.948320", "MEAN_MOTION": 1.00277761, "ECCENTRICITY": 2.42e-05, "INCLINATION": 2.7119, "RA_OF_ASC_NODE": 72.0251, "ARG_OF_PERICENTER": 163.8795, "MEAN_ANOMALY": 310.2425, "EPHEMERIS_TYPE": 0, "CLASSIFICATION_TYPE": "U", "NORAD_CAT_ID": 40732, "ELEMENT_SET_NO": 999, "REV_AT_EPOCH": 525, "BSTAR": 0, "MEAN_MOTION_DOT": 8.2e-07, "MEAN_MOTION_DDOT": 0}, "tle": {"line1": "1 40732U 15034A   25337.28971005  .00000082  00000+0  00000+0 0  9999", "line2": "2 40732   2.7119  72.0251 0000242 163.8795 310.2425  1.00277761  5252"}}, "geometry": {"type": "Point", "coordinates": [34.435369269486074, -1.6309747485374217]}}, {"type": "Feature", "properties": {"norad_id": 41105, "name": "ELEKTRO-L 2", "group": "weather", "lat": -5.481768783051926, "lon": 10.583901238068842, "alt_km": 35790.41978085211, "timestamp": "2025-12-03T20:47:57.859042+00:00", "meta": {"OBJECT_NAME": "ELEKTRO-L 2", "OBJECT_ID": "2015-074A", "EPOCH": "2025-12-03T01:42:07.255584", "MEAN_MOTION": 1.00269824, "ECCENTRICITY": 0.00039939, "INCLINATION": 6.1994, "RA_OF_ASC_NODE": 72.9411, "ARG_OF_PERICENTER": 197.267, "MEAN_ANOMALY": 172.9677, "EPHEMERIS_TYPE": 0, "CLASSIFICATION_TYPE": "U", "NORAD_CAT_ID": 41105, "ELEMENT_SET_NO": 999, "REV_AT_EPOCH": 3654, "BSTAR": 0, "MEAN_MOTION_DOT": -1.01e-06, "MEAN_MOTION_DDOT": 0}, "tle": {"line1": "1 41105U 15074A   25337.07091731 -.00000101  00000+0  00000+0 0  9997", "line2": "2 41105   6.1994  72.9411 0003993 197.2670 172.9677  1.00269824 36541"}}, "geometry": {"type": "Point", "coordinates": [10.583901238068842, -5.481768783051926]}}, {"type": "Feature", "properties": {"norad_id": 41752, "name": "INSAT-3DR", "group": "weather", "lat": 0.033251702467792334, "lon": 98.91543982435357, "alt_km": 35847.00748137542, "timestamp": "2025-12-03T20:47:57.859054+00:00", "meta": {"OBJECT_NAME": "INSAT-3DR", "OBJECT_ID": "2016-054A", "EPOCH": "2025-12-03T10:41:00.877056", "MEAN_MOTION": 1.0026958, "ECCENTRICITY": 0.0014469, "INCLINATION": 0.0678, "RA_OF_ASC_NODE": 89.0984, "ARG_OF_PERICENTER": 179.96, "MEAN_ANOMALY": 37.7604, "EPHEMERIS_TYPE": 0, "CLASSIFICATION_TYPE": "U", "NORAD_CAT_ID": 41752, "ELEMENT_SET_NO": 999, "REV_AT_EPOCH": 3385, "BSTAR": 0, "MEAN_MOTION_DOT": -5.9e-07, "MEAN_MOTION_DDOT": 0}, "tle": {"line1": "1 41752U 16054A   25337.44514904 -.00000059  00000+0  00000+0 0  9999", "line2": "2 41752   0.0678  89.0984 0014469 179.9600  37.7604  1.00269580 33853"}}, "geometry": {"type": "Point", "coordinates": [98.91543982435357, 0.033251702467792334]}}]}